{
  "type": "FeatureCollection",
  "features": [
    {
      "type": "Feature",
      "properties": {
        "norad_id": 50032,
        "name": "COSMOS 1408 DEB",
        "group": "cosmos-1408-debris",
        "lat": -80.31102751789611,
        "lon": -1.318851306273685,
        "alt_km": 439.01244824587684,
        "timestamp": "2025-12-22T09:53:37.672139+00:00",
        "meta_object_name": "COSMOS 1408 DEB",
        "meta_object_id": "1982-092RU",
        "meta_epoch": "2025-12-22T04:02:31.932960",
        "meta_mean_motion": 15.45783536,
        "meta_eccentricity": 0.0016203,
        "meta_inclination": 82.5631,
        "meta_ra_of_asc_node": 48.8449,
        "meta_arg_of_pericenter": 173.5124,
        "meta_mean_anomaly": 186.6338,
        "meta_ephemeris_type": 0,
        "meta_classification_type": "U",
        "meta_norad_cat_id": 50032,
        "meta_element_set_no": 999,
        "meta_rev_at_epoch": 22749,
        "meta_bstar": 0.00010471,
        "meta_mean_motion_dot": 5.134e-05,
        "meta_mean_motion_ddot": 0,
        "tle_line1": "1 50032U 82092RU  25356.16842515  .00005134  00000+0  10471-3 0  9992",
        "tle_line2": "2 50032  82.5631  48.8449 0016203 173.5124 186.6338 15.45783536227495"
      },
      "geometry": {
        "type": "Point",
        "coordinates": [
          -1.318851306273685,
          -80.31102751789611
        ]
      }
    },
    {
      "type": "Feature",
      "properties": {
        "norad_id": 50058,
        "name": "COSMOS 1408 DEB",
        "group": "cosmos-1408-debris",
        "lat": 45.47436784780976,
        "lon": 66.79551710302377,
        "alt_km": 360.20690344965806,
        "timestamp": "2025-12-22T09:53:37.672161+00:00",
        "meta_object_name": "COSMOS 1408 DEB",
        "meta_object_id": "1982-092SW",
        "meta_epoch": "2025-12-22T03:33:31.793760",
        "meta_mean_motion": 15.6464179,
        "meta_eccentricity": 0.0016044,
        "meta_inclination": 82.6122,
        "meta_ra_of_asc_node": 59.4914,
        "meta_arg_of_pericenter": 67.1672,
        "meta_mean_anomaly": 293.128,
        "meta_ephemeris_type": 0,
        "meta_classification_type": "U",
        "meta_norad_cat_id": 50058,
        "meta_element_set_no": 999,
        "meta_rev_at_epoch": 22951,
        "meta_bstar": 0.00034397,
        "meta_mean_motion_dot": 0.0003358,
        "meta_mean_motion_ddot": 0,
        "tle_line1": "1 50058U 82092SW  25356.14828465  .00033580  00000+0  34397-3 0  9995",
        "tle_line2": "2 50058  82.6122  59.4914 0016044  67.1672 293.1280 15.64641790229514"
      },
      "geometry": {
        "type": "Point",
        "coordinates": [
          66.79551710302377,
          45.47436784780976
        ]
      }
    },
    {
      "type": "Feature",
      "properties": {
        "norad_id": 50404,
        "name": "COSMOS 1408 DEB",
        "group": "cosmos-1408-debris",
        "lat": -44.14171551444295,
        "lon": 32.76163642513101,
        "alt_km": 465.64748323235744,
        "timestamp": "2025-12-22T09:53:37.672175+00:00",
        "meta_object_name": "COSMOS 1408 DEB",
        "meta_object_id": "1982-092ADS",
        "meta_epoch": "2025-12-21T15:28:45.909120",
        "meta_mean_motion": 15.15078556,
        "meta_eccentricity": 0.0168442,
        "meta_inclination": 82.2035,
        "meta_ra_of_asc_node": 205.9075,
        "meta_arg_of_pericenter": 168.3631,
        "meta_mean_anomaly": 192.1574,
        "meta_ephemeris_type": 0,
        "meta_classification_type": "U",
        "meta_norad_cat_id": 50404,
        "meta_element_set_no": 999,
        "meta_rev_at_epoch": 21328,
        "meta_bstar": 0.0028703,
        "meta_mean_motion_dot": 0.00077658,
        "meta_mean_motion_ddot": 0,
        "tle_line1": "1 50404U 82092ADS 25355.64497580  .00077658  00000+0  28703-2 0  9991",
        "tle_line2": "2 50404  82.2035 205.9075 0168442 168.3631 192.1574 15.15078556213284"
      },
      "geometry": {
        "type": "Point",
        "coordinates": [
          32.76163642513101,
          -44.14171551444295
        ]
      }
    },
    {
      "type": "Feature",
      "properties": {
        "norad_id": 50621,
        "name": "COSMOS 1408 DEB",
        "group": "cosmos-1408-debris",
        "lat": 17.163731334885924,
        "lon": -118.20161329120072,
        "alt_km": 382.6381694253878,
        "timestamp": "2025-12-22T09:53:37.672186+00:00",
        "meta_object_name": "COSMOS 1408 DEB",
        "meta_object_id": "1982-092ALR",
        "meta_epoch": "2025-12-22T04:34:23.412864",
        "meta_mean_motion": 15.57122494,
        "meta_eccentricity": 0.0029074,
        "meta_inclination": 82.5697,
        "meta_ra_of_asc_node": 64.3395,
        "meta_arg_of_pericenter": 118.4206,
        "meta_mean_anomaly": 241.9985,
        "meta_ephemeris_type": 0,
        "meta_classification_type": "U",
        "meta_norad_cat_id": 50621,
        "meta_element_set_no": 999,
        "meta_rev_at_epoch": 22397,
        "meta_bstar": 0.00039202,
        "meta_mean_motion_dot": 0.00029066,
        "meta_mean_motion_ddot": 0,
        "tle_line1": "1 50621U 82092ALR 25356.19054876  .00029066  00000+0  39202-3 0  9997",
        "tle_line2": "2 50621  82.5697  64.3395 0029074 118.4206 241.9985 15.57122494223978"
      },
      "geometry": {
        "type": "Point",
        "coordinates": [
          -118.20161329120072,
          17.163731334885924
        ]
      }
    }
  ]
}